[{"OBJECT_NAME":"TIANMU-1 08","OBJECT_ID":"2023-101B","EPOCH":"2026-03-07T00:03:25.475616","MEAN_MOTION":15.29204229,"ECCENTRICITY":0.00063808,"INCLINATION":97.2717,"RA_OF_ASC_NODE":118.7901,"ARG_OF_PERICENTER":134.2174,"MEAN_ANOMALY":225.9592,"EPHEMERIS_TYPE":0,"CLASSIFICATION_TYPE":"U","NORAD_CAT_ID":57400,"ELEMENT_SET_NO":999,"REV_AT_EPOCH":14602,"BSTAR":1.4774513e-5,"MEAN_MOTION_DOT":3.46e-6,"MEAN_MOTION_DDOT":0},{"OBJECT_NAME":"STARLINK-35986","OBJECT_ID":"2025-281F","EPOCH":"2026-03-09T03:21:20.691648","MEAN_MOTION":15.27597385,"ECCENTRICITY":0.0001048,"INCLINATION":43.0001,"RA_OF_ASC_NODE":346.3912,"ARG_OF_PERICENTER":278.0103,"MEAN_ANOMALY":82.0629,"EPHEMERIS_TYPE":0,"CLASSIFICATION_TYPE":"U","NORAD_CAT_ID":66853,"ELEMENT_SET_NO":999,"REV_AT_EPOCH":1610,"BSTAR":0.00095032814,"MEAN_MOTION_DOT":0.00025995,"MEAN_MOTION_DDOT":0}]
