TIANMU-1 08             
1 57400U 23101B   26066.00237819  .00000346  00000+0  14775-4 0  9993
2 57400  97.2717 118.7901 0006380 134.2174 225.9592 15.29204229146020
STARLINK-35986          
1 66853U 25281F   26068.13982282  .00025995  00000+0  95033-3 0  9995
2 66853  43.0001 346.3912 0001048 278.0103  82.0629 15.27597385 16107
